*******************************************************************************
Ephemeris / WWW_USER Mon Mar 10 07:35:38 2025 Pasadena, USA      / Horizons    
*******************************************************************************
Target body name: Lemmon (C/2018 EF9)             {source: JPL#18}
Center body name: Earth (399)                     {source: DE441}
Center-site name: Mauna Kea
*******************************************************************************
Start time      : A.D. 2018-Sep-26 04:24:00.0000 UT      
Stop  time      : A.D. 2018-Sep-26 16:02:00.0000 UT      
Step-size       : 1 minutes
*******************************************************************************
Target pole/equ : undefined
Target radii    : undefined                                                    
Center geodetic : 204.5278, 19.8260847, 4.21024   {E-lon(deg),Lat(deg),Alt(km)}
Center cylindric: 204.5278, 6006.35451, 2151.0229 {E-lon(deg),Dxy(km),Dz(km)}
Center pole/equ : ITRF93                          {East-longitude positive}
Center radii    : 6378.137, 6378.137, 6356.752 km {Equator_a, b, pole_c}       
Target primary  : Sun
Vis. interferer : MOON (R_eq= 1737.400) km        {source: DE441}
Rel. light bend : Sun                             {source: DE441}
Rel. lght bnd GM: 1.3271E+11 km^3/s^2                                          
Small-body perts: Yes                             {source: SB441-N16}
Atmos refraction: NO (AIRLESS)
RA format       : HMS
Time format     : CAL 
Calendar mode   : Mixed Julian/Gregorian
RTS-only print  : NO       
EOP file        : eop.250307.p250603                                           
EOP coverage    : DATA-BASED 1962-JAN-20 TO 2025-MAR-07. PREDICTS-> 2025-JUN-02
Units conversion: 1 au= 149597870.700 km, c= 299792.458 km/s, 1 day= 86400.0 s 
Table cut-offs 1: Elevation (-90.0deg=NO ),Airmass (>38.000=NO), Daylight (YES)
Table cut-offs 2: Solar elongation (  0.0,180.0=NO ),Local Hour Angle( 0.0=NO )
Table cut-offs 3: RA/DEC angular rate (     0.0=NO )                           
*******************************************************************************
Initial IAU76/J2000 heliocentric ecliptic osculating elements (au, days, deg.):
  EPOCH=  2458226.5 ! 2018-Apr-18.0000000 (TDB)    RMSW= n.a.                  
   EC= .9975741722198472   QR= 1.55663257903246    TP= 2458261.6283815675      
   OM= 172.5780664128357   W= 72.61657512148747    IN= 84.69445280104227       
  Equivalent ICRF heliocentric cartesian coordinates (au, au/d):
   X=-1.091857230976521E+00  Y=-4.544188696153424E-01  Z= 1.120998862172552E+00
  VX= 1.630642470498751E-02 VY=-6.481787118028984E-03 VZ= 7.403953065693920E-03
Comet physical (GM= km^3/s^2; RAD= km):                                        
   GM= n.a.                RAD= n.a.                                           
   M1=  8.6      M2=  17.8     k1=  45.25  k2=  5.      PHCOF=  .030           
*******************************************************************************
 Date__(UT)__HR:MN     R.A._________(ICRF)_________DEC
******************************************************
$$SOE
 2018-Sep-26 06:29  m  20 33 49.527088 +43 26 41.92962
 2018-Sep-26 06:30  m  20 33 49.551992 +43 26 39.87585
 2018-Sep-26 06:31  m  20 33 49.576896 +43 26 37.82203
 2018-Sep-26 06:32  m  20 33 49.601800 +43 26 35.76815
 2018-Sep-26 06:33  m  20 33 49.626705 +43 26 33.71421
 2018-Sep-26 06:34  m  20 33 49.651610 +43 26 31.66021
 2018-Sep-26 06:35  m  20 33 49.676516 +43 26 29.60615
 2018-Sep-26 06:36  m  20 33 49.701422 +43 26 27.55203
 2018-Sep-26 06:37  t  20 33 49.726329 +43 26 25.49786
 2018-Sep-26 06:38  m  20 33 49.751236 +43 26 23.44363
 2018-Sep-26 06:39  m  20 33 49.776144 +43 26 21.38933
 2018-Sep-26 06:40  m  20 33 49.801053 +43 26 19.33498
 2018-Sep-26 06:41  m  20 33 49.825962 +43 26 17.28057
 2018-Sep-26 06:42  m  20 33 49.850872 +43 26 15.22611
 2018-Sep-26 06:43  m  20 33 49.875783 +43 26 13.17158
 2018-Sep-26 06:44  m  20 33 49.900694 +43 26 11.11700
 2018-Sep-26 06:45  m  20 33 49.925607 +43 26 09.06235
 2018-Sep-26 06:46  m  20 33 49.950520 +43 26 07.00765
 2018-Sep-26 06:47  m  20 33 49.975434 +43 26 04.95289
 2018-Sep-26 06:48  m  20 33 50.000349 +43 26 02.89807
 2018-Sep-26 06:49  m  20 33 50.025265 +43 26 00.84320
 2018-Sep-26 06:50  m  20 33 50.050183 +43 25 58.78826
 2018-Sep-26 06:51  m  20 33 50.075101 +43 25 56.73327
 2018-Sep-26 06:52  m  20 33 50.100020 +43 25 54.67821
 2018-Sep-26 06:53  m  20 33 50.124941 +43 25 52.62310
 2018-Sep-26 06:54  m  20 33 50.149862 +43 25 50.56793
 2018-Sep-26 06:55  m  20 33 50.174785 +43 25 48.51271
 2018-Sep-26 06:56  m  20 33 50.199709 +43 25 46.45742
 2018-Sep-26 06:57  m  20 33 50.224635 +43 25 44.40207
 2018-Sep-26 06:58  m  20 33 50.249562 +43 25 42.34667
 2018-Sep-26 06:59  m  20 33 50.274490 +43 25 40.29121
 2018-Sep-26 07:00  m  20 33 50.299419 +43 25 38.23569
 2018-Sep-26 07:01  m  20 33 50.324351 +43 25 36.18012
 2018-Sep-26 07:02  m  20 33 50.349283 +43 25 34.12448
 2018-Sep-26 07:03  m  20 33 50.374217 +43 25 32.06879
 2018-Sep-26 07:04  m  20 33 50.399153 +43 25 30.01304
 2018-Sep-26 07:05  m  20 33 50.424090 +43 25 27.95723
 2018-Sep-26 07:06  m  20 33 50.449029 +43 25 25.90136
 2018-Sep-26 07:07  m  20 33 50.473970 +43 25 23.84543
 2018-Sep-26 07:08  m  20 33 50.498912 +43 25 21.78945
 2018-Sep-26 07:09  m  20 33 50.523856 +43 25 19.73341
 2018-Sep-26 07:10  m  20 33 50.548802 +43 25 17.67731
 2018-Sep-26 07:11  m  20 33 50.573749 +43 25 15.62115
 2018-Sep-26 07:12  m  20 33 50.598699 +43 25 13.56494
 2018-Sep-26 07:13  m  20 33 50.623650 +43 25 11.50867
 2018-Sep-26 07:14  m  20 33 50.648604 +43 25 09.45234
 2018-Sep-26 07:15  m  20 33 50.673559 +43 25 07.39595
 2018-Sep-26 07:16  m  20 33 50.698517 +43 25 05.33950
 2018-Sep-26 07:17  m  20 33 50.723476 +43 25 03.28300
 2018-Sep-26 07:18  m  20 33 50.748438 +43 25 01.22644
 2018-Sep-26 07:19  m  20 33 50.773401 +43 24 59.16982
 2018-Sep-26 07:20  m  20 33 50.798367 +43 24 57.11315
 2018-Sep-26 07:21  m  20 33 50.823335 +43 24 55.05642
 2018-Sep-26 07:22  m  20 33 50.848306 +43 24 52.99963
 2018-Sep-26 07:23  m  20 33 50.873278 +43 24 50.94278
 2018-Sep-26 07:24  m  20 33 50.898253 +43 24 48.88588
 2018-Sep-26 07:25  m  20 33 50.923231 +43 24 46.82892
 2018-Sep-26 07:26  m  20 33 50.948210 +43 24 44.77190
 2018-Sep-26 07:27  m  20 33 50.973193 +43 24 42.71483
 2018-Sep-26 07:28  m  20 33 50.998177 +43 24 40.65769
 2018-Sep-26 07:29  m  20 33 51.023164 +43 24 38.60051
 2018-Sep-26 07:30  m  20 33 51.048154 +43 24 36.54326
 2018-Sep-26 07:31  m  20 33 51.073146 +43 24 34.48596
 2018-Sep-26 07:32  m  20 33 51.098141 +43 24 32.42860
 2018-Sep-26 07:33  m  20 33 51.123139 +43 24 30.37119
 2018-Sep-26 07:34  m  20 33 51.148139 +43 24 28.31372
 2018-Sep-26 07:35  m  20 33 51.173142 +43 24 26.25619
 2018-Sep-26 07:36  m  20 33 51.198148 +43 24 24.19861
 2018-Sep-26 07:37  m  20 33 51.223156 +43 24 22.14097
 2018-Sep-26 07:38  m  20 33 51.248168 +43 24 20.08327
 2018-Sep-26 07:39  m  20 33 51.273182 +43 24 18.02552
 2018-Sep-26 07:40  m  20 33 51.298199 +43 24 15.96771
 2018-Sep-26 07:41  m  20 33 51.323219 +43 24 13.90985
 2018-Sep-26 07:42  m  20 33 51.348242 +43 24 11.85193
 2018-Sep-26 07:43  m  20 33 51.373269 +43 24 09.79395
 2018-Sep-26 07:44  m  20 33 51.398298 +43 24 07.73592
 2018-Sep-26 07:45  m  20 33 51.423330 +43 24 05.67783
 2018-Sep-26 07:46  m  20 33 51.448366 +43 24 03.61969
 2018-Sep-26 07:47  m  20 33 51.473404 +43 24 01.56150
 2018-Sep-26 07:48  m  20 33 51.498446 +43 23 59.50324
 2018-Sep-26 07:49  m  20 33 51.523491 +43 23 57.44493
 2018-Sep-26 07:50  m  20 33 51.548540 +43 23 55.38657
 2018-Sep-26 07:51  m  20 33 51.573591 +43 23 53.32815
 2018-Sep-26 07:52  m  20 33 51.598647 +43 23 51.26968
 2018-Sep-26 07:53  m  20 33 51.623705 +43 23 49.21115
 2018-Sep-26 07:54  m  20 33 51.648767 +43 23 47.15257
 2018-Sep-26 07:55  m  20 33 51.673832 +43 23 45.09393
 2018-Sep-26 07:56  m  20 33 51.698901 +43 23 43.03524
 2018-Sep-26 07:57  m  20 33 51.723974 +43 23 40.97650
 2018-Sep-26 07:58  m  20 33 51.749050 +43 23 38.91770
 2018-Sep-26 07:59  m  20 33 51.774129 +43 23 36.85884
 2018-Sep-26 08:00  m  20 33 51.799212 +43 23 34.79993
 2018-Sep-26 08:01  m  20 33 51.824299 +43 23 32.74097
 2018-Sep-26 08:02  m  20 33 51.849390 +43 23 30.68195
 2018-Sep-26 08:03  m  20 33 51.874484 +43 23 28.62288
 2018-Sep-26 08:04  m  20 33 51.899583 +43 23 26.56376
 2018-Sep-26 08:05  m  20 33 51.924685 +43 23 24.50458
 2018-Sep-26 08:06  m  20 33 51.949790 +43 23 22.44535
 2018-Sep-26 08:07  m  20 33 51.974900 +43 23 20.38607
 2018-Sep-26 08:08  m  20 33 52.000014 +43 23 18.32673
 2018-Sep-26 08:09  m  20 33 52.025131 +43 23 16.26734
 2018-Sep-26 08:10  m  20 33 52.050253 +43 23 14.20789
 2018-Sep-26 08:11  m  20 33 52.075379 +43 23 12.14840
 2018-Sep-26 08:12  m  20 33 52.100508 +43 23 10.08885
 2018-Sep-26 08:13  m  20 33 52.125642 +43 23 08.02924
 2018-Sep-26 08:14  m  20 33 52.150780 +43 23 05.96959
 2018-Sep-26 08:15  m  20 33 52.175922 +43 23 03.90988
 2018-Sep-26 08:16  m  20 33 52.201069 +43 23 01.85012
 2018-Sep-26 08:17  m  20 33 52.226219 +43 22 59.79031
 2018-Sep-26 08:18  m  20 33 52.251374 +43 22 57.73045
 2018-Sep-26 08:19  m  20 33 52.276533 +43 22 55.67053
 2018-Sep-26 08:20  m  20 33 52.301697 +43 22 53.61056
 2018-Sep-26 08:21  m  20 33 52.326865 +43 22 51.55054
 2018-Sep-26 08:22  m  20 33 52.352037 +43 22 49.49047
 2018-Sep-26 08:23  m  20 33 52.377214 +43 22 47.43035
 2018-Sep-26 08:24  m  20 33 52.402395 +43 22 45.37018
 2018-Sep-26 08:25  m  20 33 52.427581 +43 22 43.30995
 2018-Sep-26 08:26  m  20 33 52.452771 +43 22 41.24968
 2018-Sep-26 08:27  m  20 33 52.477966 +43 22 39.18935
 2018-Sep-26 08:28  m  20 33 52.503166 +43 22 37.12897
 2018-Sep-26 08:29  m  20 33 52.528370 +43 22 35.06854
 2018-Sep-26 08:30  m  20 33 52.553579 +43 22 33.00806
 2018-Sep-26 08:31  m  20 33 52.578793 +43 22 30.94754
 2018-Sep-26 08:32  m  20 33 52.604011 +43 22 28.88696
 2018-Sep-26 08:33  m  20 33 52.629234 +43 22 26.82633
